0 SL-16 DEB
1 22453U 92093ES  13282.79503949  .00000465  00000-0  40911-3 0  9310
2 22453 070.8040 142.8303 0174495 172.7599 314.4765 13.83885460 45429
0 SL-16 DEB
1 22453U 92093ES  13288.00433833  .00000679  00000-0  58027-3 0  9330
2 22453 070.8034 132.3341 0174259 165.3535 347.2242 13.83890706 46147
0 SL-16 DEB
1 22453U 92093ES  13290.67101608  .00000561  00000-0  48560-3 0  9340
2 22453 070.8036 126.9608 0174123 161.5702 312.6611 13.83894316 46516
0 SL-16 DEB
1 22453U 92093ES  13292.69675699  .00000660  00000-0  56490-3 0  9352
2 22453 070.8038 122.8790 0174015 158.6971 324.9646 13.83896466 46792
0 SL-16 DEB
1 22453U 92093ES  13294.86234383  .00000773  00000-0  65538-3 0  9363
2 22453 070.8039 118.5154 0173913 155.6268 314.0039 13.83899853 47094
